IRIDIUM 166             
1 43570U 18061B   25320.78012100  .00000425  00000+0  14472-3 0  9997
2 43570  86.3967 145.5501 0002055  92.4209 267.7222 14.34217296382953
IRIDIUM 158             
1 43571U 18061C   25320.53910203  .00000466  00000+0  15940-3 0  9998
2 43571  86.3975 145.6613 0001862  82.8964 277.2444 14.34217114382887
IRIDIUM 165             
1 43572U 18061D   25320.77377797  .00000418  00000+0  14208-3 0  9993
2 43572  86.3969 145.6052 0002076  91.2672 268.8762 14.34217143382944
IRIDIUM 155             
1 43573U 18061E   25320.52640985  .00000441  00000+0  15027-3 0  9995
2 43573  86.3963 145.5884 0001811  90.0056 270.1348 14.34215621382877
IRIDIUM 154             
1 43574U 18061F   25320.78646294  .00000470  00000+0  16090-3 0  9996
2 43574  86.3961 145.6025 0002118  87.8145 272.3294 14.34217552382967
IRIDIUM 163             
1 43575U 18061G   25320.48835693  .00000074  00000+0  19386-4 0  9999
2 43575  86.3964 145.6495 0002056  84.3404 275.8026 14.34219600382892
IRIDIUM 156             
1 43576U 18061H   25320.46299005  .00000037  00000+0  60419-5 0  9992
2 43576  86.3968 145.6675 0001750  92.3354 267.8043 14.34217796382883
IRIDIUM 164             
1 43577U 18061J   25320.44396328  .00000437  00000+0  14915-3 0  9999
2 43577  86.3970 145.7098 0002154  90.7107 269.4336 14.34217368382927
